{
  "type": "FeatureCollection",
  "features": [
    {
      "type": "Feature",
      "properties": {
        "norad_id": 36744,
        "name": "COMS 1",
        "group": "weather",
        "lat": -3.009258532751842,
        "lon": 34.23613827740089,
        "alt_km": 35787.61303058455,
        "timestamp": "2025-12-23T11:34:47.828363+00:00",
        "meta_object_name": "COMS 1",
        "meta_object_id": "2010-032A",
        "meta_epoch": "2025-12-22T21:34:51.646368",
        "meta_mean_motion": 1.00271059,
        "meta_eccentricity": 7.73e-05,
        "meta_inclination": 4.3632,
        "meta_ra_of_asc_node": 77.8837,
        "meta_arg_of_pericenter": 211.4503,
        "meta_mean_anomaly": 254.2562,
        "meta_ephemeris_type": 0,
        "meta_classification_type": "U",
        "meta_norad_cat_id": 36744,
        "meta_element_set_no": 999,
        "meta_rev_at_epoch": 4932,
        "meta_bstar": 0,
        "meta_mean_motion_dot": -3.25e-06,
        "meta_mean_motion_ddot": 0,
        "tle_line1": "1 36744U 10032A   25356.89920887 -.00000325  00000+0  00000+0 0  9991",
        "tle_line2": "2 36744   4.3632  77.8837 0000773 211.4503 254.2562  1.00271059 49326"
      },
      "geometry": {
        "type": "Point",
        "coordinates": [
          34.23613827740089,
          -3.009258532751842
        ]
      }
    },
    {
      "type": "Feature",
      "properties": {
        "norad_id": 37214,
        "name": "FENGYUN 3B",
        "group": "weather",
        "lat": -0.09340797879202062,
        "lon": 37.54894327724287,
        "alt_km": 832.8568177126363,
        "timestamp": "2025-12-23T11:34:47.828374+00:00",
        "meta_object_name": "FENGYUN 3B",
        "meta_object_id": "2010-059A",
        "meta_epoch": "2025-12-23T05:10:04.259712",
        "meta_mean_motion": 14.14791401,
        "meta_eccentricity": 0.0021559,
        "meta_inclination": 98.989,
        "meta_ra_of_asc_node": 37.2652,
        "meta_arg_of_pericenter": 327.8244,
        "meta_mean_anomaly": 112.0528,
        "meta_ephemeris_type": 0,
        "meta_classification_type": "U",
        "meta_norad_cat_id": 37214,
        "meta_element_set_no": 999,
        "meta_rev_at_epoch": 78254,
        "meta_bstar": -5.236e-05,
        "meta_mean_motion_dot": -1.47e-06,
        "meta_mean_motion_ddot": 0,
        "tle_line1": "1 37214U 10059A   25357.21532708 -.00000147  00000+0 -52360-4 0  9995",
        "tle_line2": "2 37214  98.9890  37.2652 0021559 327.8244 112.0528 14.14791401782546"
      },
      "geometry": {
        "type": "Point",
        "coordinates": [
          37.54894327724287,
          -0.09340797879202062
        ]
      }
    },
    {
      "type": "Feature",
      "properties": {
        "norad_id": 37849,
        "name": "SUOMI NPP",
        "group": "weather",
        "lat": 22.553950519634682,
        "lon": -68.95177831931747,
        "alt_km": 826.1971918256995,
        "timestamp": "2025-12-23T11:34:47.828384+00:00",
        "meta_object_name": "SUOMI NPP",
        "meta_object_id": "2011-061A",
        "meta_epoch": "2025-12-22T15:10:21.732672",
        "meta_mean_motion": 14.19516903,
        "meta_eccentricity": 0.00024883,
        "meta_inclination": 98.7787,
        "meta_ra_of_asc_node": 293.8852,
        "meta_arg_of_pericenter": 103.0781,
        "meta_mean_anomaly": 257.0673,
        "meta_ephemeris_type": 0,
        "meta_classification_type": "U",
        "meta_norad_cat_id": 37849,
        "meta_element_set_no": 999,
        "meta_rev_at_epoch": 73339,
        "meta_bstar": 6.3406935e-05,
        "meta_mean_motion_dot": 8.9e-07,
        "meta_mean_motion_ddot": 0,
        "tle_line1": "1 37849U 11061A   25356.63219598  .00000089  00000+0  63407-4 0  9994",
        "tle_line2": "2 37849  98.7787 293.8852 0002488 103.0781 257.0673 14.19516903733392"
      },
      "geometry": {
        "type": "Point",
        "coordinates": [
          -68.95177831931747,
          22.553950519634682
        ]
      }
    },
    {
      "type": "Feature",
      "properties": {
        "norad_id": 38552,
        "name": "METEOSAT-10 (MSG-3)",
        "group": "weather",
        "lat": -1.7902903214765447,
        "lon": -93.75252913764515,
        "alt_km": 35783.29447438747,
        "timestamp": "2025-12-23T11:34:47.828395+00:00",
        "meta_object_name": "METEOSAT-10 (MSG-3)",
        "meta_object_id": "2012-035B",
        "meta_epoch": "2025-12-23T01:08:58.915104",
        "meta_mean_motion": 1.0027689,
        "meta_eccentricity": 7.31e-05,
        "meta_inclination": 4.2513,
        "meta_ra_of_asc_node": 61.6947,
        "meta_arg_of_pericenter": 264.0711,
        "meta_mean_anomaly": 143.6614,
        "meta_ephemeris_type": 0,
        "meta_classification_type": "U",
        "meta_norad_cat_id": 38552,
        "meta_element_set_no": 999,
        "meta_rev_at_epoch": 4909,
        "meta_bstar": 0,
        "meta_mean_motion_dot": 1.6e-07,
        "meta_mean_motion_ddot": 0,
        "tle_line1": "1 38552U 12035B   25357.04790411  .00000016  00000+0  00000+0 0  9997",
        "tle_line2": "2 38552   4.2513  61.6947 0000731 264.0711 143.6614  1.00276890 49095"
      },
      "geometry": {
        "type": "Point",
        "coordinates": [
          -93.75252913764515,
          -1.7902903214765447
        ]
      }
    },
    {
      "type": "Feature",
      "properties": {
        "norad_id": 38771,
        "name": "METOP-B",
        "group": "weather",
        "lat": -50.96858142122445,
        "lon": 58.11753363538715,
        "alt_km": 829.7744882808765,
        "timestamp": "2025-12-23T11:34:47.828405+00:00",
        "meta_object_name": "METOP-B",
        "meta_object_id": "2012-049A",
        "meta_epoch": "2025-12-23T03:22:34.504032",
        "meta_mean_motion": 14.21412265,
        "meta_eccentricity": 0.0003227,
        "meta_inclination": 98.6783,
        "meta_ra_of_asc_node": 46.9224,
        "meta_arg_of_pericenter": 122.2695,
        "meta_mean_anomaly": 237.8796,
        "meta_ephemeris_type": 0,
        "meta_classification_type": "U",
        "meta_norad_cat_id": 38771,
        "meta_element_set_no": 999,
        "meta_rev_at_epoch": 68825,
        "meta_bstar": 8.5194e-05,
        "meta_mean_motion_dot": 1.43e-06,
        "meta_mean_motion_ddot": 0,
        "tle_line1": "1 38771U 12049A   25357.14067713  .00000143  00000+0  85194-4 0  9991",
        "tle_line2": "2 38771  98.6783  46.9224 0003227 122.2695 237.8796 14.21412265688256"
      },
      "geometry": {
        "type": "Point",
        "coordinates": [
          58.11753363538715,
          -50.96858142122445
        ]
      }
    },
    {
      "type": "Feature",
      "properties": {
        "norad_id": 39216,
        "name": "INSAT-3D",
        "group": "weather",
        "lat": -1.1069276925663911,
        "lon": 35.50555259041355,
        "alt_km": 35792.352673343725,
        "timestamp": "2025-12-23T11:34:47.828416+00:00",
        "meta_object_name": "INSAT-3D",
        "meta_object_id": "2013-038B",
        "meta_epoch": "2025-12-22T22:20:24.211392",
        "meta_mean_motion": 1.00275675,
        "meta_eccentricity": 0.0001842,
        "meta_inclination": 1.4696,
        "meta_ra_of_asc_node": 84.8836,
        "meta_arg_of_pericenter": 153.7919,
        "meta_mean_anomaly": 317.6677,
        "meta_ephemeris_type": 0,
        "meta_classification_type": "U",
        "meta_norad_cat_id": 39216,
        "meta_element_set_no": 999,
        "meta_rev_at_epoch": 4531,
        "meta_bstar": 0,
        "meta_mean_motion_dot": -3.18e-06,
        "meta_mean_motion_ddot": 0,
        "tle_line1": "1 39216U 13038B   25356.93083578 -.00000318  00000+0  00000+0 0  9991",
        "tle_line2": "2 39216   1.4696  84.8836 0001842 153.7919 317.6677  1.00275675 45319"
      },
      "geometry": {
        "type": "Point",
        "coordinates": [
          35.50555259041355,
          -1.1069276925663911
        ]
      }
    },
    {
      "type": "Feature",
      "properties": {
        "norad_id": 39260,
        "name": "FENGYUN 3C",
        "group": "weather",
        "lat": -25.29828470279165,
        "lon": -21.31972512384994,
        "alt_km": 856.039976461032,
        "timestamp": "2025-12-23T11:34:47.828425+00:00",
        "meta_object_name": "FENGYUN 3C",
        "meta_object_id": "2013-052A",
        "meta_epoch": "2025-12-23T04:54:57.627360",
        "meta_mean_motion": 14.15699258,
        "meta_eccentricity": 0.0014857,
        "meta_inclination": 98.4776,
        "meta_ra_of_asc_node": 334.3737,
        "meta_arg_of_pericenter": 165.7351,
        "meta_mean_anomaly": 194.4246,
        "meta_ephemeris_type": 0,
        "meta_classification_type": "U",
        "meta_norad_cat_id": 39260,
        "meta_element_set_no": 999,
        "meta_rev_at_epoch": 63366,
        "meta_bstar": 6.7569e-05,
        "meta_mean_motion_dot": 9.1e-07,
        "meta_mean_motion_ddot": 0,
        "tle_line1": "1 39260U 13052A   25357.20483365  .00000091  00000+0  67569-4 0  9990",
        "tle_line2": "2 39260  98.4776 334.3737 0014857 165.7351 194.4246 14.15699258633660"
      },
      "geometry": {
        "type": "Point",
        "coordinates": [
          -21.31972512384994,
          -25.29828470279165
        ]
      }
    }
  ]
}